KUIPER-00016            
1 63732U 25088J   25340.92407395  .00010061  00000+0  13427-2 0  9993
2 63732  51.8981 161.8061 0013552 116.3769 243.8587 14.80010480 33590
KUIPER-00018            
1 63733U 25088K   25340.86899746  .00003619  00000+0  50286-3 0  9998
2 63733  51.9031 151.0021 0014208 139.8140 220.3875 14.79950152 33741
KUIPER-00019            
1 63734U 25088L   25340.73494084 -.00001941  00000+0 -22501-3 0  9998
2 63734  51.8980 150.1410 0010297 147.7108 212.4487 14.79945231 33745
KUIPER-00020            
1 63735U 25088M   25340.86631686  .00002844  00000+0  40176-3 0  9993
2 63735  51.9007 153.5435 0009254 129.9032 230.2745 14.79947959 33913
KUIPER-00021            
1 63736U 25088N   25340.86458845  .00001680  00000+0  24940-3 0  9996
2 63736  51.9004 154.5498 0007915 126.1425 234.0271 14.79950295 33731
KUIPER-00023            
1 63737U 25088P   25340.86352086 -.00001166  00000+0 -12327-3 0  9994
2 63737  51.8987 156.0206 0012445 146.8069 213.3676 14.79937570 34014
KUIPER-00024            
1 63738U 25088Q   25340.87133912  .00003133  00000+0  44217-3 0  9998
2 63738  51.9019 143.4711 0005148 140.0095 220.1247 14.79701116 34318
KUIPER-00025            
1 63739U 25088R   25340.92124171  .00002440  00000+0  34443-3 0  9992
2 63739  51.8984 151.6830 0009641 124.4727 235.7148 14.80503523 34060
